{
  "type": "FeatureCollection",
  "updated": "2026-01-26",
  "features": [
    {
      "type": "Feature",
      "geometry": {
        "type": "Polygon",
        "coordinates": [
          [
            [-104.6694073, 38.2646391],
            [-104.5694073, 38.2646391],
            [-104.5694073, 38.3646391],
            [-104.6694073, 38.3646391],
            [-104.6694073, 38.2646391]
          ]
        ]
      },
      "properties": {
        "id": "zip-81008",
        "name": "Approximate ZIP 81008 extent",
        "type": "boundary",
        "description": "Bounding box for ZIP code 81008; used as frame for North Pueblo research.",
        "sources": ["Nominatim OpenStreetMap"],
        "notes": "Desktop mapping uses bounding box because public polygon data requires shapefiles."
      }
    },
    {
      "type": "Feature",
      "geometry": {
        "type": "Point",
        "coordinates": [-104.612921, 38.2629478]
      },
      "properties": {
        "id": "pueblo-rtcc",
        "name": "Pueblo Police Department / Real-Time Crime Center",
        "type": "rtcc",
        "description": "Public Safety Complex hosting RTCC with ShotSpotter (6 sq mi), drones, Daktronics video wall, Community Connect intake. Operating 10am-midnight, expanding to 24/7.",
        "components": ["ShotSpotter", "Drones", "Body cams", "22+ fixed cameras", "22 ALPRs", "Daktronics video wall"],
        "sources": [
          "https://www.pueblo.us/Directory.aspx?did=13",
          "https://www.daktronics.com/news/eye-on-crime-increases-with-daktronics-high-point-networks-collaboration-for-pueblo-police-department-s-real-time-crime-center"
        ],
        "updated": "2026-01"
      }
    },
    {
      "type": "Feature",
      "geometry": {
        "type": "Point",
        "coordinates": [-104.612921, 38.2629478]
      },
      "properties": {
        "id": "pueblo-dfr-station",
        "name": "Drone as First Responder (DFR) Station",
        "type": "drone-surveillance",
        "description": "First DFR station launched July 2025. Drones deployed to RTCC before officers arrive. Part of Pueblo's expanding aerial surveillance network.",
        "sources": ["Daktronics press release Sept 2025"],
        "updated": "2026-01"
      }
    },
    {
      "type": "Feature",
      "geometry": {
        "type": "Point",
        "coordinates": [-104.6126358, 38.2654292]
      },
      "properties": {
        "id": "downtown-alpr",
        "name": "Downtown Flock ALPR Installations",
        "type": "alpr",
        "description": "Pueblo Downtown Association-funded Flock Safety cameras covering Union Ave / Riverwalk corridors. 30-day cloud retention. Part of 1,091-camera Colorado network.",
        "sources": ["https://www.koaa.com/news/covering-colorado/license-plate-cameras-coming-to-pueblo"],
        "notes": "EFF Nov 2025 report documents Flock network used to surveil protesters nationwide.",
        "updated": "2025-11"
      }
    },
    {
      "type": "Feature",
      "geometry": {
        "type": "Point",
        "coordinates": [-104.5948, 38.2577]
      },
      "properties": {
        "id": "bessemer-mobile-trailer",
        "name": "Mobile Camera Trailer - Mesa & Elm",
        "type": "mobile-surveillance",
        "camera_count": 4,
        "description": "Solar-powered mobile RTCC camera trailer at Mesa Ave & Elm St. One of four mobile trailers deployed citywide. Captured Aug 2025 homicide footage.",
        "sources": ["KKTV, July 2025", "Pueblo PD press release Aug 2025"],
        "notes": "Location approximate based on news reporting. Trailers are mobile and may relocate.",
        "updated": "2026-01"
      }
    },
    {
      "type": "Feature",
      "geometry": {
        "type": "Point",
        "coordinates": [-104.6082866, 38.3031311]
      },
      "properties": {
        "id": "pueblo-mall-security",
        "name": "Pueblo Mall private security office",
        "type": "private-security",
        "description": "North-side retail hub with on-site security office. Potential Community Connect participant in ZIP 81008.",
        "sources": ["https://www.shoppueblomall.com/services/security"],
        "updated": "2025-11"
      }
    },
    {
      "type": "Feature",
      "geometry": {
        "type": "Point",
        "coordinates": [-104.6107614, 38.2751559]
      },
      "properties": {
        "id": "pcso-hq",
        "name": "Pueblo County Sheriff's Office HQ",
        "type": "law-enforcement",
        "mobile_alprs": 73,
        "description": "909 Court Street command campus. Sheriff Lucero issued Jan 2025 statement limiting ICE cooperation. All 73 patrol cars now equipped with mobile Flock ALPRs (March 2025). Mobile ALPRs feed into RTCC.",
        "sources": [
          "https://www.pueblosheriff.com/Directory.aspx?did=1",
          "https://www.pueblosheriff.com/DocumentCenter/View/3323/Sheriff-Lucero-Statement"
        ],
        "updated": "2026-01"
      }
    },
    {
      "type": "Feature",
      "geometry": {
        "type": "Point",
        "coordinates": [-104.6129252, 38.2764132]
      },
      "properties": {
        "id": "ccsoco-immigration",
        "name": "Catholic Charities Immigration Services",
        "type": "community-support",
        "description": "Safe walk-in site at 429 W 10th St offering DOJ-accredited immigration legal aid, Know Your Rights briefings. Phone: (719) 586-8600.",
        "sources": ["https://www.ccsoco.org/contact", "https://www.ccsoco.org/immigration"],
        "updated": "2025-11"
      }
    },
    {
      "type": "Feature",
      "geometry": {
        "type": "Point",
        "coordinates": [-104.6071836, 38.2812424]
      },
      "properties": {
        "id": "mineral-palace-park",
        "name": "Mineral Palace Park",
        "type": "park-surveillance",
        "description": "One of 5 parks with RTCC-connected surveillance infrastructure (cameras, ALPRs, Wi-Fi, fiber). Funded by $1M+ ARPA allocation. Community staging zone for events like Pueblo Pride.",
        "sources": ["KRDO, July 2025", "City of Pueblo ARPA spending reports"],
        "notes": "Good rally point with sight lines away from downtown RTCC clusters. Surveillance cameras active 24/7, feeds to RTCC.",
        "updated": "2026-01"
      }
    },
    {
      "type": "Feature",
      "geometry": {
        "type": "Point",
        "coordinates": [-104.6200, 38.2700]
      },
      "properties": {
        "id": "city-park",
        "name": "City Park",
        "type": "park-surveillance",
        "description": "One of 5 parks with RTCC-connected surveillance infrastructure (cameras, ALPRs, Wi-Fi, fiber). Funded by $1M+ ARPA allocation. Cameras feed directly to RTCC video wall.",
        "sources": ["KRDO, July 2025", "City of Pueblo ARPA spending reports"],
        "updated": "2026-01"
      }
    },
    {
      "type": "Feature",
      "geometry": {
        "type": "Point",
        "coordinates": [-104.5850, 38.2400]
      },
      "properties": {
        "id": "lake-minnequa",
        "name": "Lake Minnequa Park",
        "type": "park-surveillance",
        "description": "One of 5 parks with RTCC-connected surveillance infrastructure (cameras, ALPRs, Wi-Fi, fiber). Funded by $1M+ ARPA allocation. Cameras feed directly to RTCC.",
        "sources": ["KRDO, July 2025", "City of Pueblo ARPA spending reports"],
        "updated": "2026-01"
      }
    },
    {
      "type": "Feature",
      "geometry": {
        "type": "Point",
        "coordinates": [-104.5900, 38.2500]
      },
      "properties": {
        "id": "ray-aguilera-park",
        "name": "Ray Aguilera Park",
        "type": "park-surveillance",
        "description": "One of 5 parks with RTCC-connected surveillance infrastructure (cameras, ALPRs, Wi-Fi, fiber). Funded by $1M+ ARPA allocation. Cameras feed directly to RTCC.",
        "sources": ["KRDO, July 2025", "City of Pueblo ARPA spending reports"],
        "updated": "2026-01"
      }
    },
    {
      "type": "Feature",
      "geometry": {
        "type": "Point",
        "coordinates": [-104.6050, 38.2950]
      },
      "properties": {
        "id": "mitchell-park",
        "name": "Mitchell Park",
        "type": "park-surveillance",
        "description": "One of 5 parks with RTCC-connected surveillance infrastructure (cameras, ALPRs, Wi-Fi, fiber). Funded by $1M+ ARPA allocation. Cameras feed directly to RTCC.",
        "sources": ["KRDO, July 2025", "City of Pueblo ARPA spending reports"],
        "updated": "2026-01"
      }
    },
    {
      "type": "Feature",
      "geometry": {
        "type": "Point",
        "coordinates": [-104.6140, 38.2620]
      },
      "properties": {
        "id": "city-hall-cameras",
        "name": "City Hall Camera Arrays",
        "type": "fixed-surveillance",
        "description": "New camera arrays installed on city buildings including City Hall (2025). Enhanced surveillance for downtown events.",
        "sources": ["KKTV, July 2025"],
        "updated": "2025-11"
      }
    },
    {
      "type": "Feature",
      "geometry": {
        "type": "Point",
        "coordinates": [-104.5000, 38.2900]
      },
      "properties": {
        "id": "pueblo-memorial-airport",
        "name": "Pueblo Memorial Airport",
        "type": "watch-site",
        "description": "Community protests over potential ICE use for immigration transport. Monitor for ICE activity.",
        "sources": ["Rocky Mountain PBS, 2025"],
        "notes": "Location to watch for ICE transport flights. Not confirmed as active ICE site.",
        "updated": "2025-11"
      }
    },
    {
      "type": "Feature",
      "geometry": {
        "type": "Point",
        "coordinates": [-104.6100, 38.2880]
      },
      "properties": {
        "id": "posada-pueblo",
        "name": "Posada of Pueblo",
        "type": "community-support",
        "description": "Emergency housing, homeless services, youth programs. Address: 501 Belmont Ave. Phone: 719-545-8776.",
        "sources": ["posadapueblo.org"],
        "updated": "2025-11"
      }
    },
    {
      "type": "Feature",
      "geometry": {
        "type": "Point",
        "coordinates": [-104.6130, 38.2730]
      },
      "properties": {
        "id": "colorado-legal-services",
        "name": "Colorado Legal Services - Pueblo Office",
        "type": "community-support",
        "description": "Free legal aid for eviction defense, immigration screenings, protection orders. Address: 1000 W 6th St. Phone: 719-545-6708.",
        "sources": ["coloradolegalservices.org"],
        "updated": "2025-11"
      }
    },
    {
      "type": "Feature",
      "geometry": {
        "type": "Point",
        "coordinates": [-104.6080, 38.2690]
      },
      "properties": {
        "id": "mariposa-ywca",
        "name": "Mariposa Center for Safety (YWCA)",
        "type": "community-support",
        "description": "24/7 DV crisis line, emergency shelter, legal advocacy. Address: 801 N Santa Fe Ave. Crisis line: 719-545-8195.",
        "sources": ["ywcapueblo.org"],
        "updated": "2025-11"
      }
    },
    {
      "type": "Feature",
      "geometry": {
        "type": "Point",
        "coordinates": [-104.6090, 38.2780]
      },
      "properties": {
        "id": "pueblo-chc",
        "name": "Pueblo Community Health Center",
        "type": "community-support",
        "description": "FQHC accepting all patients regardless of ability to pay. Homeless clinic, migrant health services. Phone: (719) 543-8711.",
        "sources": ["pueblochc.org"],
        "updated": "2025-11"
      }
    },
    {
      "type": "Feature",
      "geometry": {
        "type": "Point",
        "coordinates": [-104.6180, 38.2750]
      },
      "properties": {
        "id": "health-solutions-crisis",
        "name": "Health Solutions Crisis Walk-In Center",
        "type": "community-support",
        "description": "24/7 mental health crisis stabilization, mobile crisis response, peer support, detox coordination. No insurance required. Address: 711 W 13th St. Phone: 844-493-8255.",
        "sources": ["health.solutions/services/crisis-care"],
        "updated": "2025-11"
      }
    },
    {
      "type": "Feature",
      "geometry": {
        "type": "Point",
        "coordinates": [-104.6100, 38.2690]
      },
      "properties": {
        "id": "juniper-southern-colorado",
        "name": "Juniper Southern Colorado (formerly Rape Crisis Services)",
        "type": "community-support",
        "description": "24/7 crisis hotline (call OR text), hospital/court accompaniment, long-term case management, counseling referrals. Address: 503 N Main St, Suite 526. Crisis line: 719-549-0549 (call/text).",
        "sources": ["rapecrisisservices.org", "ColoradoGives"],
        "updated": "2026-01"
      }
    },
    {
      "type": "Feature",
      "geometry": {
        "type": "Point",
        "coordinates": [-104.6050, 38.2620]
      },
      "properties": {
        "id": "pueblo-library-main",
        "name": "Pueblo City-County Library - Rawlings Branch",
        "type": "community-support",
        "description": "Main library with TechConnect program: free Wi-Fi hotspot/Chromebook loans, printing, digital literacy help. Address: 100 E Abriendo Ave. Phone: 719-562-5600.",
        "sources": ["pueblolibrary.org/techconnect"],
        "updated": "2025-11"
      }
    },
    {
      "type": "Feature",
      "geometry": {
        "type": "Point",
        "coordinates": [-104.6170, 38.2680]
      },
      "properties": {
        "id": "cooperative-care-center",
        "name": "Pueblo Cooperative Care Center",
        "type": "community-support",
        "description": "Food, clothing, hygiene kits, mail services for residents in crisis. Address: 326 W 8th St. Phone: 719-543-7484.",
        "sources": ["cooperativecarecenter.org"],
        "updated": "2025-11"
      }
    },
    {
      "type": "Feature",
      "geometry": {
        "type": "Point",
        "coordinates": [-104.6065, 38.2715]
      },
      "properties": {
        "id": "pueblo-courthouse",
        "name": "Pueblo County Courthouse",
        "type": "watch-site",
        "description": "Location to monitor for ICE civil arrest activity. Nov 2025 federal ruling prohibits ICE warrantless arrests in Colorado. Address: 215 W 10th St.",
        "sources": ["Colorado federal court ruling Nov 2025"],
        "notes": "Log observations in data/immigration_ice_raw.md with date, time, agency, badge numbers if visible.",
        "updated": "2025-11"
      }
    },
    {
      "type": "Feature",
      "geometry": {
        "type": "Polygon",
        "coordinates": [[[-104.625, 38.295], [-104.575, 38.295], [-104.575, 38.260], [-104.625, 38.260], [-104.625, 38.295]]]
      },
      "properties": {
        "id": "shotspotter-eastside",
        "name": "ShotSpotter Eastside Coverage",
        "type": "acoustic-surveillance",
        "area_sq_mi": 2,
        "description": "Primary ShotSpotter deployment (~2 sq mi). Sensors on buildings and poles. 60-second alert to RTCC. Part of $210k/year SoundThinking contract.",
        "sources": ["SoundThinking press release 2025", "KOAA News5 2025-01"],
        "notes": "Coverage area is approximate - exact sensor locations not public. Chicago IG found 89% of ShotSpotter alerts led to no gun-related incident.",
        "updated": "2026-01"
      }
    },
    {
      "type": "Feature",
      "geometry": {
        "type": "Polygon",
        "coordinates": [[[-104.610, 38.260], [-104.575, 38.260], [-104.575, 38.235], [-104.610, 38.235], [-104.610, 38.260]]]
      },
      "properties": {
        "id": "shotspotter-bessemer",
        "name": "ShotSpotter Bessemer Coverage",
        "type": "acoustic-surveillance",
        "area_sq_mi": 1,
        "description": "Expanded ShotSpotter coverage (~1 sq mi). Added July 2025 after March officer shooting. Extends into previously unmonitored Bessemer/Southside area.",
        "sources": ["KOAA News5 July 2025", "Pueblo PD press release"],
        "notes": "Expansion funded by state grant. Almost exclusively deployed in low-income Black/Latino neighborhoods.",
        "updated": "2026-01"
      }
    },
    {
      "type": "Feature",
      "geometry": {
        "type": "LineString",
        "coordinates": [
          [-104.6200, 38.2620],
          [-104.6150, 38.2640],
          [-104.6100, 38.2660],
          [-104.6050, 38.2680]
        ]
      },
      "properties": {
        "id": "union-ave-alpr-corridor",
        "name": "Union Avenue ALPR Corridor",
        "type": "alpr-corridor",
        "description": "Flock Safety license plate reader corridor along Union Avenue. Downtown Association funded initial deployment. Part of 1,091-camera Colorado network. 30-day cloud retention.",
        "sources": ["KOAA News5 2024", "EFF Nov 2025 report"],
        "notes": "EFF documented this network used for protest surveillance. Audit logs should be requested via CORA.",
        "updated": "2026-01"
      }
    },
    {
      "type": "Feature",
      "geometry": {
        "type": "LineString",
        "coordinates": [
          [-104.6080, 38.2580],
          [-104.6100, 38.2620],
          [-104.6120, 38.2660],
          [-104.6140, 38.2700]
        ]
      },
      "properties": {
        "id": "riverwalk-alpr-corridor",
        "name": "Riverwalk ALPR Corridor",
        "type": "alpr-corridor",
        "description": "Flock Safety license plate reader coverage along Riverwalk area. Connected to Downtown Association surveillance initiative.",
        "sources": ["KOAA News5 2024"],
        "notes": "Part of downtown surveillance ring. Cameras capture all plates, not just hotlist matches.",
        "updated": "2026-01"
      }
    },
    {
      "type": "Feature",
      "geometry": {
        "type": "Point",
        "coordinates": [-104.6350, 38.2850]
      },
      "properties": {
        "id": "csu-pueblo",
        "name": "Colorado State University Pueblo",
        "type": "institution",
        "description": "Major employer and institution. Potential march/protest staging area. Has campus police. Located near ALPR coverage zones.",
        "sources": ["CSU Pueblo website"],
        "notes": "University grounds are limited public forum - different First Amendment rules may apply for non-students.",
        "updated": "2026-01"
      }
    },
    {
      "type": "Feature",
      "geometry": {
        "type": "Point",
        "coordinates": [-104.6200, 38.2550]
      },
      "properties": {
        "id": "pueblo-community-college",
        "name": "Pueblo Community College",
        "type": "institution",
        "description": "Major employer. Commissioner McPheeters works in grant compliance here. Mobile food pantry first Tuesday of each month.",
        "sources": ["PCC website", "Care and Share Food Bank"],
        "notes": "Potential conflict of interest for commissioner votes on education-related surveillance.",
        "updated": "2026-01"
      }
    },
    {
      "type": "Feature",
      "geometry": {
        "type": "Point",
        "coordinates": [-104.6080, 38.2665]
      },
      "properties": {
        "id": "el-centro-quinto-sol",
        "name": "El Centro del Quinto Sol Recreation Center",
        "type": "community-support",
        "description": "Free drop-in activities, after-school programs, tutoring, safe community space. Address: 609 E 6th St. Phone: 719-553-2949.",
        "sources": ["City of Pueblo website"],
        "notes": "Good community meeting space. CSU-Pueblo Learning Center on-site.",
        "updated": "2026-01"
      }
    }
  ]
}
